      2.10          N: GNSS NAV DATA                        RINEX VERSION / TYPE
fic2rin                                 12/26/2020 00:17:26 PGM / RUN BY / DATE
                                                            END OF HEADER
10 20 12 25 10  0  0.0-2.401554957032e-05-8.753886504564e-12 0.000000000000e+00
    6.300000000000e+01 3.718750000000e+00 4.611263506206e-09 1.972472574566e+00
    2.272427082062e-07 6.309709628113e-03 7.564201951027e-06 5.153667676926e+03
    4.680000000000e+05-1.732259988785e-07 3.517394733038e-01 4.842877388000e-08
    9.678890555728e-01 2.402187500000e+02-2.633694123040e+00-8.026405760589e-09
    3.757299363743e-10 1.000000000000e+00 2.137000000000e+03 0.000000000000e+00
    2.400000000000e+00 0.000000000000e+00 2.328306436539e-09 6.300000000000e+01
    4.608000000000e+05 4.000000000000e+00
27 20 12 25 10  0  0.0-4.218099638820e-05-7.958078640513e-12 0.000000000000e+00
    1.030000000000e+02-5.356250000000e+01 4.392682972878e-09-1.085680997143e-01
   -2.706423401833e-06 8.722199709155e-03 3.604218363762e-06 5.153674192429e+03
    4.680000000000e+05 9.313225746155e-08-1.740676579858e+00 1.005828380585e-07
    9.768160845165e-01 3.193125000000e+02 5.643221631975e-01-8.334632885200e-09
   -1.617924535908e-10 1.000000000000e+00 2.137000000000e+03 0.000000000000e+00
    3.400000000000e+00 0.000000000000e+00 1.862645149231e-09 1.030000000000e+02
    4.608000000000e+05 4.000000000000e+00
30 20 12 25 10  0  0.0-3.580860793591e-04-6.252776074689e-12 0.000000000000e+00
    1.050000000000e+02 3.953125000000e+01 4.810200364153e-09-2.963037742507e+00
    2.026557922363e-06 4.742085002363e-03 1.032277941704e-05 5.153771722794e+03
    4.680000000000e+05-2.235174179077e-08 2.477852222045e+00-2.980232238770e-08
    9.374927982695e-01 1.682187500000e+02-2.846958753660e+00-8.006762085208e-09
   -1.867934949846e-10 1.000000000000e+00 2.137000000000e+03 0.000000000000e+00
    2.400000000000e+00 0.000000000000e+00 3.725290298462e-09 1.050000000000e+02
    4.608000000000e+05 4.000000000000e+00
19 20 12 25 10  0  0.0-6.073061376810e-05 5.002220859751e-12 0.000000000000e+00
    6.200000000000e+01-5.431250000000e+01 4.144815505346e-09 2.359553073611e+00
   -2.915039658546e-06 8.979985606857e-03 4.213303327560e-06 5.153612031937e+03
    4.680000000000e+05 9.126961231232e-08-1.635547033979e+00-5.587935447693e-08
    9.812506836811e-01 3.086250000000e+02 1.762391638434e+00-7.902114869088e-09
   -1.792931825664e-10 1.000000000000e+00 2.137000000000e+03 0.000000000000e+00
    2.400000000000e+00 0.000000000000e+00-1.536682248116e-08 6.200000000000e+01
    4.608000000000e+05 4.000000000000e+00
24 20 12 25 10  0  0.0 4.666857421398e-06-4.547473508865e-13 0.000000000000e+00
    6.300000000000e+01 3.625000000000e+01 4.824129515787e-09-1.977559927777e+00
    1.816079020500e-06 1.074694131967e-02 9.680166840553e-06 5.153624471664e+03
    4.680000000000e+05 5.774199962616e-08 2.382685088306e+00-1.341104507446e-07
    9.355126889100e-01 1.796875000000e+02 7.143241098493e-01-7.947116743597e-09
   -1.717928701483e-10 1.000000000000e+00 2.137000000000e+03 0.000000000000e+00
    2.400000000000e+00 0.000000000000e+00 2.793967723846e-09 6.300000000000e+01
    4.608000000000e+05 4.000000000000e+00
12 20 12 25 10  0  0.0 2.215290442109e-05-5.229594535194e-12 0.000000000000e+00
    4.100000000000e+01 7.775000000000e+01 4.116957202078e-09 2.656099986163e+00
    3.973022103310e-06 8.126158034429e-03 4.636123776436e-06 5.153585145950e+03
    4.680000000000e+05 1.024454832077e-07-2.716380327298e+00-5.960464477539e-08
    9.758745504407e-01 2.964062500000e+02 1.168896692896e+00-7.893543083468e-09
    1.939366496685e-10 1.000000000000e+00 2.137000000000e+03 0.000000000000e+00
    2.400000000000e+00 0.000000000000e+00-1.257285475731e-08 4.100000000000e+01
    4.608000000000e+05 4.000000000000e+00
15 20 12 25 10  0  0.0-1.809061504900e-04 2.614797267597e-12 0.000000000000e+00
    1.010000000000e+02-2.075000000000e+01 5.561303079167e-09-1.097140303635e+00
   -9.536743164062e-07 1.309427351225e-02 6.008893251419e-06 5.153786544800e+03
    4.680000000000e+05 1.825392246246e-07 1.289916882124e+00 2.831220626831e-07
    9.282295497894e-01 2.443125000000e+02 9.617768580266e-01-8.557856469072e-09
   -2.778687172046e-10 1.000000000000e+00 2.137000000000e+03 0.000000000000e+00
    2.400000000000e+00 0.000000000000e+00-1.071020960808e-08 1.010000000000e+02
    4.608000000000e+05 4.000000000000e+00
32 20 12 25 10  0  0.0 1.032743602991e-05 2.387423592154e-12 0.000000000000e+00
    5.900000000000e+01-2.053125000000e+01 4.921633577222e-09 6.318368419692e-01
   -1.013278961182e-06 4.356498480774e-03 6.750226020813e-06 5.153613161087e+03
    4.680000000000e+05 2.048909664154e-08 1.394345871645e+00 6.146728992462e-08
    9.566238241821e-01 2.476250000000e+02-2.465703875286e+00-8.247129240322e-09
   -3.946592962867e-10 1.000000000000e+00 2.137000000000e+03 0.000000000000e+00
    2.400000000000e+00 0.000000000000e+00 4.656612873077e-10 5.900000000000e+01
    4.608000000000e+05 4.000000000000e+00
28 20 12 25 10  0  0.0 6.386297754943e-04-5.002220859751e-12 0.000000000000e+00
    6.300000000000e+01 7.071875000000e+01 4.351609833445e-09 6.161259239578e-01
    3.591179847717e-06 1.819955452811e-02 4.939734935760e-06 5.153667757034e+03
    4.680000000000e+05-1.899898052216e-07-2.693966756060e+00-1.527369022369e-07
    9.750681417191e-01 2.934375000000e+02-1.362408043935e+00-8.419993583673e-09
    1.457203555520e-10 1.000000000000e+00 2.137000000000e+03 0.000000000000e+00
    2.400000000000e+00 0.000000000000e+00-1.117587089539e-08 6.300000000000e+01
    4.608000000000e+05 4.000000000000e+00
23 20 12 25 10  0  0.0 1.125121489167e-04 2.501110429876e-12 0.000000000000e+00
    1.340000000000e+02 4.593750000000e+00 4.673408951956e-09-2.445913414180e+00
    3.036111593246e-07 1.090998761356e-03 7.363036274910e-06 5.153634536743e+03
    4.680000000000e+05-9.313225746155e-09 3.290808691391e-01 3.725290298462e-09
    9.628489209681e-01 2.394062500000e+02 2.265984177874e+00-8.033906073007e-09
    3.843017219950e-10 1.000000000000e+00 2.137000000000e+03 0.000000000000e+00
    2.400000000000e+00 0.000000000000e+00-8.381903171539e-09 1.340000000000e+02
    4.608000000000e+05 4.000000000000e+00
14 20 12 25 10  0  0.0 7.245084270835e-05 8.753886504564e-12 0.000000000000e+00
    1.500000000000e+01 8.456250000000e+01 4.564118685292e-09-2.442367255405e+00
    4.459172487259e-06 2.100646961480e-04 4.621222615242e-06 5.153739257812e+03
    4.680000000000e+05-2.793967723846e-08-2.741107145064e+00 1.490116119385e-08
    9.594091426703e-01 2.865312500000e+02 1.867762523372e+00-8.217485148383e-09
    2.225092684042e-10 1.000000000000e+00 2.137000000000e+03 0.000000000000e+00
    2.400000000000e+00 0.000000000000e+00-2.328306436539e-09 5.270000000000e+02
    4.608000000000e+05 4.000000000000e+00
18 20 12 25 10  0  0.0 3.357781097293e-04 3.410605131648e-12 0.000000000000e+00
    1.120000000000e+02-5.475000000000e+01 4.231604834755e-09-2.137124858731e+00
   -2.888962626457e-06 1.188241294585e-03 1.015327870846e-05 5.153704273224e+03
    4.680000000000e+05-2.235174179077e-08-6.697543795125e-01 0.000000000000e+00
    9.664982403369e-01 1.900625000000e+02 3.000116409176e+00-7.857827310048e-09
    1.739358165535e-10 1.000000000000e+00 2.137000000000e+03 0.000000000000e+00
    2.400000000000e+00 0.000000000000e+00-8.381903171539e-09 8.800000000000e+02
    4.608000000000e+05 4.000000000000e+00
 2 20 12 25  9 59 44.0-5.584340542555e-04-4.320099833421e-12 0.000000000000e+00
    6.000000000000e+00-5.521875000000e+01 4.328751738457e-09-2.068603810818e+00
   -2.613291144371e-06 2.026167511940e-02 8.739531040192e-06 5.153583753586e+03
    4.679840000000e+05 2.868473529816e-07-7.644303209512e-01 2.272427082062e-07
    9.616040318106e-01 2.056562500000e+02-1.571106768252e+00-7.643532669530e-09
    1.328626771209e-10 1.000000000000e+00 2.137000000000e+03 0.000000000000e+00
    2.400000000000e+00 0.000000000000e+00-1.769512891769e-08 6.000000000000e+00
    4.633500000000e+05 4.000000000000e+00
 3 20 12 25  9 59 44.0-3.892509266734e-05-9.890754881781e-12 0.000000000000e+00
    0.000000000000e+00 6.312500000000e+00 4.514830917973e-09 2.796279776482e+00
    2.514570951462e-07 3.252576221712e-03 7.431954145432e-06 5.153681446075e+03
    4.679840000000e+05-5.401670932770e-08 3.546891828224e-01-8.940696716309e-08
    9.679794668359e-01 2.370312500000e+02 8.849502346208e-01-7.908543708304e-09
    3.528718413857e-10 1.000000000000e+00 2.137000000000e+03 0.000000000000e+00
    2.400000000000e+00 0.000000000000e+00 1.862645149231e-09 0.000000000000e+00
    4.645200000000e+05 4.000000000000e+00
27 20 12 25  9 59 44.0-4.218006506562e-05-7.958078640513e-12 0.000000000000e+00
    4.300000000000e+01-5.356250000000e+01 4.392325815143e-09-1.109027092344e-01
   -2.706423401833e-06 8.722198195755e-03 3.604218363762e-06 5.153674190521e+03
    4.679840000000e+05 9.499490261078e-08-1.740676432103e+00 1.005828380585e-07
    9.768160947569e-01 3.193125000000e+02 5.643229941350e-01-8.334632885200e-09
   -1.617924535908e-10 1.000000000000e+00 2.137000000000e+03 0.000000000000e+00
    2.400000000000e+00 0.000000000000e+00 1.862645149231e-09 4.300000000000e+01
    4.647300000000e+05 4.000000000000e+00
 2 20 12 25 11 59 44.0-5.584657192230e-04-4.320099833421e-12 0.000000000000e+00
    7.000000000000e+00-5.693750000000e+01 4.482686721895e-09-1.018353666975e+00
   -2.739951014519e-06 2.026154182386e-02 9.324401617050e-06 5.153584320068e+03
    4.751840000000e+05-3.166496753693e-07-7.644874274214e-01 2.756714820862e-07
    9.616022558280e-01 2.080625000000e+02-1.571122190334e+00-8.234271561891e-09
    1.285767843106e-10 1.000000000000e+00 2.137000000000e+03 0.000000000000e+00
    2.400000000000e+00 0.000000000000e+00-1.769512891769e-08 7.000000000000e+00
    4.680000000000e+05 4.000000000000e+00
